[{"OBJECT_NAME":"ALSAT-1B","OBJECT_ID":"2016-059C","EPOCH":"2026-03-10T00:15:52.612704","MEAN_MOTION":14.72190019,"ECCENTRICITY":0.00091536,"INCLINATION":97.7807,"RA_OF_ASC_NODE":82.042,"ARG_OF_PERICENTER":176.3903,"MEAN_ANOMALY":183.7372,"EPHEMERIS_TYPE":0,"CLASSIFICATION_TYPE":"U","NORAD_CAT_ID":41785,"ELEMENT_SET_NO":999,"REV_AT_EPOCH":50598,"BSTAR":0.00016894626,"MEAN_MOTION_DOT":1.018e-5,"MEAN_MOTION_DDOT":0},{"OBJECT_NAME":"CZ-4B DEB","OBJECT_ID":"1999-057E","EPOCH":"2026-03-09T16:36:38.575296","MEAN_MOTION":14.1241459,"ECCENTRICITY":0.02756302,"INCLINATION":99.1153,"RA_OF_ASC_NODE":125.5663,"ARG_OF_PERICENTER":262.3904,"MEAN_ANOMALY":94.5885,"EPHEMERIS_TYPE":0,"CLASSIFICATION_TYPE":"U","NORAD_CAT_ID":26118,"ELEMENT_SET_NO":999,"REV_AT_EPOCH":32777,"BSTAR":0.0011999564,"MEAN_MOTION_DOT":3.121e-5,"MEAN_MOTION_DDOT":0}]
